CCSDS_OMM_VERS = 2.0
CREATION_DATE  = 
ORIGINATOR     = 

OBJECT_NAME    = STARLINK-37052
OBJECT_ID      = 2026-050N
CENTER_NAME    = EARTH
REF_FRAME      = TEME
TIME_SYSTEM    = UTC
MEAN_ELEMENT_THEORY = SGP/SGP4

EPOCH          = 2026-04-03T14:07:18.603264
MEAN_MOTION    = 15.80863623
ECCENTRICITY   = .0001341
INCLINATION    = 53.1576
RA_OF_ASC_NODE = 156.9543
ARG_OF_PERICENTER = 62.3081
MEAN_ANOMALY   = 297.8077

EPHEMERIS_TYPE = 0
CLASSIFICATION_TYPE = U
NORAD_CAT_ID   = 68179
ELEMENT_SET_NO = 999
REV_AT_EPOCH   = 441
BSTAR          = .13678334E-2
MEAN_MOTION_DOT = .278019E-2
MEAN_MOTION_DDOT = 0

CCSDS_OMM_VERS = 2.0
CREATION_DATE  = 
ORIGINATOR     = 

OBJECT_NAME    = STARLINK-37035
OBJECT_ID      = 2026-050P
CENTER_NAME    = EARTH
REF_FRAME      = TEME
TIME_SYSTEM    = UTC
MEAN_ELEMENT_THEORY = SGP/SGP4

EPOCH          = 2026-04-03T14:06:13.628736
MEAN_MOTION    = 15.80875108
ECCENTRICITY   = .00010962
INCLINATION    = 53.1575
RA_OF_ASC_NODE = 156.9490
ARG_OF_PERICENTER = 120.8248
MEAN_ANOMALY   = 239.2883

EPHEMERIS_TYPE = 0
CLASSIFICATION_TYPE = U
NORAD_CAT_ID   = 68180
ELEMENT_SET_NO = 999
REV_AT_EPOCH   = 441
BSTAR          = .134944E-2
MEAN_MOTION_DOT = .274298E-2
MEAN_MOTION_DDOT = 0

CCSDS_OMM_VERS = 2.0
CREATION_DATE  = 
ORIGINATOR     = 

OBJECT_NAME    = STARLINK-37032
OBJECT_ID      = 2026-050Q
CENTER_NAME    = EARTH
REF_FRAME      = TEME
TIME_SYSTEM    = UTC
MEAN_ELEMENT_THEORY = SGP/SGP4

EPOCH          = 2026-04-03T14:05:08.684448
MEAN_MOTION    = 15.80888655
ECCENTRICITY   = .00014958
INCLINATION    = 53.1576
RA_OF_ASC_NODE = 156.9444
ARG_OF_PERICENTER = 85.8494
MEAN_ANOMALY   = 274.2700

EPHEMERIS_TYPE = 0
CLASSIFICATION_TYPE = U
NORAD_CAT_ID   = 68181
ELEMENT_SET_NO = 999
REV_AT_EPOCH   = 441
BSTAR          = .14975925E-2
MEAN_MOTION_DOT = .305805E-2
MEAN_MOTION_DDOT = 0

CCSDS_OMM_VERS = 2.0
CREATION_DATE  = 
ORIGINATOR     = 

OBJECT_NAME    = STARLINK-37082
OBJECT_ID      = 2026-050R
CENTER_NAME    = EARTH
REF_FRAME      = TEME
TIME_SYSTEM    = UTC
MEAN_ELEMENT_THEORY = SGP/SGP4

EPOCH          = 2026-04-03T14:04:04.226592
MEAN_MOTION    = 15.80862503
ECCENTRICITY   = .00018157
INCLINATION    = 53.1576
RA_OF_ASC_NODE = 156.9387
ARG_OF_PERICENTER = 72.6631
MEAN_ANOMALY   = 287.4590

EPHEMERIS_TYPE = 0
CLASSIFICATION_TYPE = U
NORAD_CAT_ID   = 68182
ELEMENT_SET_NO = 999
REV_AT_EPOCH   = 441
BSTAR          = .1327911E-2
MEAN_MOTION_DOT = .269605E-2
MEAN_MOTION_DDOT = 0

CCSDS_OMM_VERS = 2.0
CREATION_DATE  = 
ORIGINATOR     = 

OBJECT_NAME    = STARLINK-37102
OBJECT_ID      = 2026-050S
CENTER_NAME    = EARTH
REF_FRAME      = TEME
TIME_SYSTEM    = UTC
MEAN_ELEMENT_THEORY = SGP/SGP4

EPOCH          = 2026-04-03T14:02:58.919424
MEAN_MOTION    = 15.80834935
ECCENTRICITY   = .00008701
INCLINATION    = 53.1578
RA_OF_ASC_NODE = 156.9341
ARG_OF_PERICENTER = 80.3230
MEAN_ANOMALY   = 279.7891

EPHEMERIS_TYPE = 0
CLASSIFICATION_TYPE = U
NORAD_CAT_ID   = 68183
ELEMENT_SET_NO = 999
REV_AT_EPOCH   = 441
BSTAR          = .86328867E-3
MEAN_MOTION_DOT = .172834E-2
MEAN_MOTION_DDOT = 0

CCSDS_OMM_VERS = 2.0
CREATION_DATE  = 
ORIGINATOR     = 

OBJECT_NAME    = STARLINK-36964
OBJECT_ID      = 2026-050T
CENTER_NAME    = EARTH
REF_FRAME      = TEME
TIME_SYSTEM    = UTC
MEAN_ELEMENT_THEORY = SGP/SGP4

EPOCH          = 2026-04-03T14:01:54.505632
MEAN_MOTION    = 15.80808800
ECCENTRICITY   = .00012258
INCLINATION    = 53.1577
RA_OF_ASC_NODE = 156.9284
ARG_OF_PERICENTER = 77.2701
MEAN_ANOMALY   = 282.8459

EPHEMERIS_TYPE = 0
CLASSIFICATION_TYPE = U
NORAD_CAT_ID   = 68184
ELEMENT_SET_NO = 999
REV_AT_EPOCH   = 441
BSTAR          = .54969405E-3
MEAN_MOTION_DOT = .108846E-2
MEAN_MOTION_DDOT = 0

CCSDS_OMM_VERS = 2.0
CREATION_DATE  = 
ORIGINATOR     = 

OBJECT_NAME    = STARLINK-37061
OBJECT_ID      = 2026-050U
CENTER_NAME    = EARTH
REF_FRAME      = TEME
TIME_SYSTEM    = UTC
MEAN_ELEMENT_THEORY = SGP/SGP4

EPOCH          = 2026-04-03T12:29:47.194368
MEAN_MOTION    = 15.80858221
ECCENTRICITY   = .00012611
INCLINATION    = 53.1577
RA_OF_ASC_NODE = 157.2407
ARG_OF_PERICENTER = 62.2490
MEAN_ANOMALY   = 297.8661

EPHEMERIS_TYPE = 0
CLASSIFICATION_TYPE = U
NORAD_CAT_ID   = 68185
ELEMENT_SET_NO = 999
REV_AT_EPOCH   = 440
BSTAR          = .11085233E-2
MEAN_MOTION_DOT = .223695E-2
MEAN_MOTION_DDOT = 0

CCSDS_OMM_VERS = 2.0
CREATION_DATE  = 
ORIGINATOR     = 

OBJECT_NAME    = STARLINK-37079
OBJECT_ID      = 2026-050V
CENTER_NAME    = EARTH
REF_FRAME      = TEME
TIME_SYSTEM    = UTC
MEAN_ELEMENT_THEORY = SGP/SGP4

EPOCH          = 2026-04-03T12:28:42.633696
MEAN_MOTION    = 15.80793272
ECCENTRICITY   = .00011364
INCLINATION    = 53.1576
RA_OF_ASC_NODE = 157.2358
ARG_OF_PERICENTER = 74.7271
MEAN_ANOMALY   = 285.3878

EPHEMERIS_TYPE = 0
CLASSIFICATION_TYPE = U
NORAD_CAT_ID   = 68186
ELEMENT_SET_NO = 999
REV_AT_EPOCH   = 440
BSTAR          = .46237283E-3
MEAN_MOTION_DOT = .9119E-3
MEAN_MOTION_DDOT = 0

CCSDS_OMM_VERS = 2.0
CREATION_DATE  = 
ORIGINATOR     = 

OBJECT_NAME    = STARLINK-37006
OBJECT_ID      = 2026-050W
CENTER_NAME    = EARTH
REF_FRAME      = TEME
TIME_SYSTEM    = UTC
MEAN_ELEMENT_THEORY = SGP/SGP4

EPOCH          = 2026-04-03T13:58:40.220544
MEAN_MOTION    = 15.80820356
ECCENTRICITY   = .00013421
INCLINATION    = 53.1577
RA_OF_ASC_NODE = 156.9140
ARG_OF_PERICENTER = 63.7812
MEAN_ANOMALY   = 296.3349

EPHEMERIS_TYPE = 0
CLASSIFICATION_TYPE = U
NORAD_CAT_ID   = 68187
ELEMENT_SET_NO = 999
REV_AT_EPOCH   = 441
BSTAR          = .82855605E-3
MEAN_MOTION_DOT = .165601E-2
MEAN_MOTION_DDOT = 0

CCSDS_OMM_VERS = 2.0
CREATION_DATE  = 
ORIGINATOR     = 

OBJECT_NAME    = STARLINK-36340
OBJECT_ID      = 2026-050X
CENTER_NAME    = EARTH
REF_FRAME      = TEME
TIME_SYSTEM    = UTC
MEAN_ELEMENT_THEORY = SGP/SGP4

EPOCH          = 2026-04-03T13:57:35.201952
MEAN_MOTION    = 15.80853310
ECCENTRICITY   = .00016255
INCLINATION    = 53.1577
RA_OF_ASC_NODE = 156.9088
ARG_OF_PERICENTER = 70.5339
MEAN_ANOMALY   = 289.5859

EPHEMERIS_TYPE = 0
CLASSIFICATION_TYPE = U
NORAD_CAT_ID   = 68188
ELEMENT_SET_NO = 999
REV_AT_EPOCH   = 431
BSTAR          = .11038161E-2
MEAN_MOTION_DOT = .222666E-2
MEAN_MOTION_DDOT = 0

CCSDS_OMM_VERS = 2.0
CREATION_DATE  = 
ORIGINATOR     = 

OBJECT_NAME    = STARLINK-36305
OBJECT_ID      = 2026-050Y
CENTER_NAME    = EARTH
REF_FRAME      = TEME
TIME_SYSTEM    = UTC
MEAN_ELEMENT_THEORY = SGP/SGP4

EPOCH          = 2026-04-03T13:56:30.609312
MEAN_MOTION    = 15.80826753
ECCENTRICITY   = .00016062
INCLINATION    = 53.1576
RA_OF_ASC_NODE = 156.9038
ARG_OF_PERICENTER = 58.0329
MEAN_ANOMALY   = 302.0850

EPHEMERIS_TYPE = 0
CLASSIFICATION_TYPE = U
NORAD_CAT_ID   = 68189
ELEMENT_SET_NO = 999
REV_AT_EPOCH   = 431
BSTAR          = .87846164E-3
MEAN_MOTION_DOT = .175882E-2
MEAN_MOTION_DDOT = 0

CCSDS_OMM_VERS = 2.0
CREATION_DATE  = 
ORIGINATOR     = 

OBJECT_NAME    = STARLINK-37071
OBJECT_ID      = 2026-050Z
CENTER_NAME    = EARTH
REF_FRAME      = TEME
TIME_SYSTEM    = UTC
MEAN_ELEMENT_THEORY = SGP/SGP4

EPOCH          = 2026-04-03T13:54:20.657664
MEAN_MOTION    = 15.80860259
ECCENTRICITY   = .0001309
INCLINATION    = 53.1574
RA_OF_ASC_NODE = 156.8935
ARG_OF_PERICENTER = 81.3403
MEAN_ANOMALY   = 278.7768

EPHEMERIS_TYPE = 0
CLASSIFICATION_TYPE = U
NORAD_CAT_ID   = 68190
ELEMENT_SET_NO = 999
REV_AT_EPOCH   = 441
BSTAR          = .14420874E-2
MEAN_MOTION_DOT = .293642E-2
MEAN_MOTION_DDOT = 0

