STARLINK-37052          
1 68179U 26050N   26093.58840976  .00278019  00000+0  13678-2 0  9994
2 68179  53.1576 156.9543 0001341  62.3081 297.8077 15.80863623  4413
STARLINK-37035          
1 68180U 26050P   26093.58765774  .00274298  00000+0  13494-2 0  9999
2 68180  53.1575 156.9490 0001096 120.8248 239.2883 15.80875108  4413
STARLINK-37032          
1 68181U 26050Q   26093.58690607  .00305805  00000+0  14976-2 0  9997
2 68181  53.1576 156.9444 0001495  85.8494 274.2700 15.80888655  4418
STARLINK-37082          
1 68182U 26050R   26093.58616003  .00269605  00000+0  13279-2 0  9998
2 68182  53.1576 156.9387 0001815  72.6631 287.4590 15.80862503  4415
STARLINK-37102          
1 68183U 26050S   26093.58540416  .00172834  00000+0  86329-3 0  9997
2 68183  53.1578 156.9341 0000870  80.3230 279.7891 15.80834935  4415
STARLINK-36964          
1 68184U 26050T   26093.58465863  .00108846  00000+0  54969-3 0  9997
2 68184  53.1577 156.9284 0001225  77.2701 282.8459 15.80808800  4411
STARLINK-37061          
1 68185U 26050U   26093.52068512  .00223695  00000+0  11085-2 0  9993
2 68185  53.1577 157.2407 0001261  62.2490 297.8661 15.80858221  4404
STARLINK-37079          
1 68186U 26050V   26093.51993789  .00091190  00000+0  46237-3 0  9997
2 68186  53.1576 157.2358 0001136  74.7271 285.3878 15.80793272  4401
STARLINK-37006          
1 68187U 26050W   26093.58240996  .00165601  00000+0  82856-3 0  9996
2 68187  53.1577 156.9140 0001342  63.7812 296.3349 15.80820356  4416
STARLINK-36340          
1 68188U 26050X   26093.58165743  .00222666  00000+0  11038-2 0  9991
2 68188  53.1577 156.9088 0001625  70.5339 289.5859 15.80853310  4317
STARLINK-36305          
1 68189U 26050Y   26093.58090983  .00175882  00000+0  87846-3 0  9993
2 68189  53.1576 156.9038 0001606  58.0329 302.0850 15.80826753  4314
STARLINK-37071          
1 68190U 26050Z   26093.57940576  .00293642  00000+0  14421-2 0  9999
2 68190  53.1574 156.8935 0001309  81.3403 278.7768 15.80860259  4418
